{"type": "FeatureCollection", "features": [ {"type": "Feature", "properties": {"norad_id": 34077, "name": "IRIDIUM 33 DEB", "group": "iridium-33-debris", "lat": -56.41081865687163, "lon": 43.334127131533926, "alt_km": 682.9636377372244, "timestamp": "2025-12-18T21:31:51.389198+00:00", "meta": {"OBJECT_NAME": "IRIDIUM 33 DEB", "OBJECT_ID": "1997-051CL", "EPOCH": "2025-12-18T03:59:51.140832", "MEAN_MOTION": 14.64893341, "ECCENTRICITY": 0.00095976, "INCLINATION": 86.3857, "RA_OF_ASC_NODE": 49.1172, "ARG_OF_PERICENTER": 22.3717, "MEAN_ANOMALY": 31.0362, "EPHEMERIS_TYPE": 0, "CLASSIFICATION_TYPE": "U", "NORAD_CAT_ID": 34077, "ELEMENT_SET_NO": 999, "REV_AT_EPOCH": 88412, "BSTAR": 0.00076822632, "MEAN_MOTION_DOT": 4.129e-05, "MEAN_MOTION_DDOT": 0}, "tle": {"line1": "1 34077U 97051CL  25352.16656413  .00004129  00000+0  76823-3 0  9996", "line2": "2 34077  86.3857  49.1172 0009597  22.3717  31.0362 14.64893341884127"}}, "geometry": {"type": "Point", "coordinates": [43.334127131533926, -56.41081865687163]}}, {"type": "Feature", "properties": {"norad_id": 34079, "name": "IRIDIUM 33 DEB", "group": "iridium-33-debris", "lat": -10.001098465691824, "lon": 5.221925329597518, "alt_km": 618.6287716814522, "timestamp": "2025-12-18T21:31:51.389209+00:00", "meta": {"OBJECT_NAME": "IRIDIUM 33 DEB", "OBJECT_ID": "1997-051CN", "EPOCH": "2025-12-18T02:26:05.990208", "MEAN_MOTION": 14.83662586, "ECCENTRICITY": 0.00049111, "INCLINATION": 86.377, "RA_OF_ASC_NODE": 6.224, "ARG_OF_PERICENTER": 349.8127, "MEAN_ANOMALY": 73.2814, "EPHEMERIS_TYPE": 0, "CLASSIFICATION_TYPE": "U", "NORAD_CAT_ID": 34079, "ELEMENT_SET_NO": 999, "REV_AT_EPOCH": 89057, "BSTAR": 0.0012172438, "MEAN_MOTION_DOT": 0.0001008, "MEAN_MOTION_DDOT": 0}, "tle": {"line1": "1 34079U 97051CN  25352.10145822  .00010080  00000+0  12172-2 0  9998", "line2": "2 34079  86.3770   6.2240 0004911 349.8127  73.2814 14.83662586890572"}}, "geometry": {"type": "Point", "coordinates": [5.221925329597518, -10.001098465691824]}}, {"type": "Feature", "properties": {"norad_id": 34088, "name": "IRIDIUM 33 DEB", "group": "iridium-33-debris", "lat": -76.3850616628123, "lon": -136.9726645411636, "alt_km": 600.9933042444936, "timestamp": "2025-12-18T21:31:51.389220+00:00", "meta": {"OBJECT_NAME": "IRIDIUM 33 DEB", "OBJECT_ID": "1997-051CX", "EPOCH": "2025-12-18T02:54:39.334176", "MEAN_MOTION": 14.91624092, "ECCENTRICITY": 0.00062353, "INCLINATION": 86.3846, "RA_OF_ASC_NODE": 28.2513, "ARG_OF_PERICENTER": 159.1232, "MEAN_ANOMALY": 254.2652, "EPHEMERIS_TYPE": 0, "CLASSIFICATION_TYPE": "U", "NORAD_CAT_ID": 34088, "ELEMENT_SET_NO": 999, "REV_AT_EPOCH": 88822, "BSTAR": 0.0018792437, "MEAN_MOTION_DOT": 0.00018926, "MEAN_MOTION_DDOT": 0}, "tle": {"line1": "1 34088U 97051CX  25352.12128859  .00018926  00000+0  18792-2 0  9992", "line2": "2 34088  86.3846  28.2513 0006235 159.1232 254.2652 14.91624092888222"}}, "geometry": {"type": "Point", "coordinates": [-136.9726645411636, -76.3850616628123]}}, {"type": "Feature", "properties": {"norad_id": 34091, "name": "IRIDIUM 33 DEB", "group": "iridium-33-debris", "lat": -52.42903642514308, "lon": -111.21649068028789, "alt_km": 610.7476153613925, "timestamp": "2025-12-18T21:31:51.389230+00:00", "meta": {"OBJECT_NAME": "IRIDIUM 33 DEB", "OBJECT_ID": "1997-051DA", "EPOCH": "2025-12-18T04:16:47.373312", "MEAN_MOTION": 14.8221607, "ECCENTRICITY": 0.00338054, "INCLINATION": 86.3422, "RA_OF_ASC_NODE": 64.3429, "ARG_OF_PERICENTER": 273.6022, "MEAN_ANOMALY": 86.1335, "EPHEMERIS_TYPE": 0, "CLASSIFICATION_TYPE": "U", "NORAD_CAT_ID": 34091, "ELEMENT_SET_NO": 999, "REV_AT_EPOCH": 87947, "BSTAR": 0.0037025527, "MEAN_MOTION_DOT": 0.00029931, "MEAN_MOTION_DDOT": 0}, "tle": {"line1": "1 34091U 97051DA  25352.17832608  .00029931  00000+0  37026-2 0  9994", "line2": "2 34091  86.3422  64.3429 0033805 273.6022  86.1335 14.82216070879475"}}, "geometry": {"type": "Point", "coordinates": [-111.21649068028789, -52.42903642514308]}}, {"type": "Feature", "properties": {"norad_id": 34097, "name": "IRIDIUM 33 DEB", "group": "iridium-33-debris", "lat": 24.783105800156733, "lon": 176.9321214768463, "alt_km": 833.2480931191303, "timestamp": "2025-12-18T21:31:51.389240+00:00", "meta": {"OBJECT_NAME": "IRIDIUM 33 DEB", "OBJECT_ID": "1997-051DG", "EPOCH": "2025-12-18T00:43:30.559584", "MEAN_MOTION": 14.34818977, "ECCENTRICITY": 0.00820082, "INCLINATION": 86.2002, "RA_OF_ASC_NODE": 359.073, "ARG_OF_PERICENTER": 344.9204, "MEAN_ANOMALY": 14.9547, "EPHEMERIS_TYPE": 0, "CLASSIFICATION_TYPE": "U", "NORAD_CAT_ID": 34097, "ELEMENT_SET_NO": 999, "REV_AT_EPOCH": 87195, "BSTAR": 0.0011689476, "MEAN_MOTION_DOT": 3.462e-05, "MEAN_MOTION_DDOT": 0}, "tle": {"line1": "1 34097U 97051DG  25352.03021481  .00003462  00000+0  11689-2 0  9992", "line2": "2 34097  86.2002 359.0730 0082008 344.9204  14.9547 14.34818977871956"}}, "geometry": {"type": "Point", "coordinates": [176.9321214768463, 24.783105800156733]}}, {"type": "Feature", "properties": {"norad_id": 34145, "name": "IRIDIUM 33 DEB", "group": "iridium-33-debris", "lat": -50.591397566902344, "lon": 154.4099917702216, "alt_km": 794.2232309582942, "timestamp": "2025-12-18T21:31:51.389251+00:00", "meta": {"OBJECT_NAME": "IRIDIUM 33 DEB", "OBJECT_ID": "1997-051DY", "EPOCH": "2025-12-17T22:49:23.776032", "MEAN_MOTION": 14.42325232, "ECCENTRICITY": 0.0055747, "INCLINATION": 86.2112, "RA_OF_ASC_NODE": 330.2054, "ARG_OF_PERICENTER": 77.2912, "MEAN_ANOMALY": 283.4511, "EPHEMERIS_TYPE": 0, "CLASSIFICATION_TYPE": "U", "NORAD_CAT_ID": 34145, "ELEMENT_SET_NO": 999, "REV_AT_EPOCH": 87713, "BSTAR": 0.00089218085, "MEAN_MOTION_DOT": 3.021e-05, "MEAN_MOTION_DDOT": 0}, "tle": {"line1": "1 34145U 97051DY  25351.95096963  .00003021  00000+0  89218-3 0  9998", "line2": "2 34145  86.2112 330.2054 0055747  77.2912 283.4511 14.42325232877130"}}, "geometry": {"type": "Point", "coordinates": [154.4099917702216, -50.591397566902344]}}, {"type": "Feature", "properties": {"norad_id": 34146, "name": "IRIDIUM 33 DEB", "group": "iridium-33-debris", "lat": 17.5184071869909, "lon": -11.74367636260837, "alt_km": 747.6173980918729, "timestamp": "2025-12-18T21:31:51.389262+00:00", "meta": {"OBJECT_NAME": "IRIDIUM 33 DEB", "OBJECT_ID": "1997-051DZ", "EPOCH": "2025-12-17T18:04:21.043776", "MEAN_MOTION": 14.49082256, "ECCENTRICITY": 0.00259845, "INCLINATION": 86.2829, "RA_OF_ASC_NODE": 347.5858, "ARG_OF_PERICENTER": 204.0117, "MEAN_ANOMALY": 329.0213, "EPHEMERIS_TYPE": 0, "CLASSIFICATION_TYPE": "U", "NORAD_CAT_ID": 34146, "ELEMENT_SET_NO": 999, "REV_AT_EPOCH": 88179, "BSTAR": 0.00069560917, "MEAN_MOTION_DOT": 2.672e-05, "MEAN_MOTION_DDOT": 0}, "tle": {"line1": "1 34146U 97051DZ  25351.75302134  .00002672  00000+0  69561-3 0  9997", "line2": "2 34146  86.2829 347.5858 0025984 204.0117 329.0213 14.49082256881792"}}, "geometry": {"type": "Point", "coordinates": [-11.74367636260837, 17.5184071869909]}}, {"type": "Feature", "properties": {"norad_id": 34159, "name": "IRIDIUM 33 DEB", "group": "iridium-33-debris", "lat": -38.33908423539111, "lon": -131.49032720709997, "alt_km": 757.4884238077748, "timestamp": "2025-12-18T21:31:51.389274+00:00", "meta": {"OBJECT_NAME": "IRIDIUM 33 DEB", "OBJECT_ID": "1997-051EN", "EPOCH": "2025-12-18T03:49:19.458336", "MEAN_MOTION": 14.38506978, "ECCENTRICITY": 0.00259235, "INCLINATION": 86.35, "RA_OF_ASC_NODE": 45.9306, "ARG_OF_PERICENTER": 268.5859, "MEAN_ANOMALY": 91.237, "EPHEMERIS_TYPE": 0, "CLASSIFICATION_TYPE": "U", "NORAD_CAT_ID": 34159, "ELEMENT_SET_NO": 999, "REV_AT_EPOCH": 88037, "BSTAR": 0.00031010873, "MEAN_MOTION_DOT": 9.7e-06, "MEAN_MOTION_DDOT": 0}, "tle": {"line1": "1 34159U 97051EN  25352.15925299  .00000970  00000+0  31011-3 0  9997", "line2": "2 34159  86.3500  45.9306 0025923 268.5859  91.2370 14.38506978880376"}}, "geometry": {"type": "Point", "coordinates": [-131.49032720709997, -38.33908423539111]}}, {"type": "Feature", "properties": {"norad_id": 34350, "name": "IRIDIUM 33 DEB", "group": "iridium-33-debris", "lat": 39.44834404659754, "lon": 3.164977973520304, "alt_km": 733.8527236277196, "timestamp": "2025-12-18T21:31:51.389285+00:00", "meta": {"OBJECT_NAME": "IRIDIUM 33 DEB", "OBJECT_ID": "1997-051ES", "EPOCH": "2025-12-18T01:40:51.532896", "MEAN_MOTION": 14.45399099, "ECCENTRICITY": 0.00232171, "INCLINATION": 86.3271, "RA_OF_ASC_NODE": 0.4941, "ARG_OF_PERICENTER": 118.7766, "MEAN_ANOMALY": 300.1907, "EPHEMERIS_TYPE": 0, "CLASSIFICATION_TYPE": "U", "NORAD_CAT_ID": 34350, "ELEMENT_SET_NO": 999, "REV_AT_EPOCH": 88370, "BSTAR": 0.00026444097, "MEAN_MOTION_DOT": 9.53e-06, "MEAN_MOTION_DDOT": 0}, "tle": {"line1": "1 34350U 97051ES  25352.07004089  .00000953  00000+0  26444-3 0  9991", "line2": "2 34350  86.3271   0.4941 0023217 118.7766 300.1907 14.45399099883702"}}, "geometry": {"type": "Point", "coordinates": [3.164977973520304, 39.44834404659754]}}, {"type": "Feature", "properties": {"norad_id": 34366, "name": "IRIDIUM 33 DEB", "group": "iridium-33-debris", "lat": -20.529651601583875, "lon": -132.00184260330784, "alt_km": 714.801336560522, "timestamp": "2025-12-18T21:31:51.389295+00:00", "meta": {"OBJECT_NAME": "IRIDIUM 33 DEB", "OBJECT_ID": "1997-051FJ", "EPOCH": "2025-12-18T04:20:48.619392", "MEAN_MOTION": 14.54101202, "ECCENTRICITY": 0.00228764, "INCLINATION": 86.3697, "RA_OF_ASC_NODE": 46.9472, "ARG_OF_PERICENTER": 122.6423, "MEAN_ANOMALY": 291.8477, "EPHEMERIS_TYPE": 0, "CLASSIFICATION_TYPE": "U", "NORAD_CAT_ID": 34366, "ELEMENT_SET_NO": 999, "REV_AT_EPOCH": 88261, "BSTAR": 0.00074238134, "MEAN_MOTION_DOT": 3.166e-05, "MEAN_MOTION_DDOT": 0}, "tle": {"line1": "1 34366U 97051FJ  25352.18111828  .00003166  00000+0  74238-3 0  9993", "line2": "2 34366  86.3697  46.9472 0022876 122.6423 291.8477 14.54101202882613"}}, "geometry": {"type": "Point", "coordinates": [-132.00184260330784, -20.529651601583875]}}]}